BUFENG 1A               
1 44310U 19032A   26068.91906837  .00016103  00000+0  62414-3 0  9992
2 44310  44.9758 238.6688 0005472  55.4463 304.6935 15.26012088372013
STARLINK-35924          
1 66516U 25265A   26068.93258843  .00041443  00000+0  15061-2 0  9998
2 66516  43.0005 276.3057 0002201 256.5279 103.5327 15.27601307 17156
